{"type": "FeatureCollection", "features": [ {"type": "Feature", "properties": {"norad_id": 66955, "name": "HULIANWANG DIGUI-116", "group": "last-30-days", "lat": -58.61800334640109, "lon": -20.004217555424635, "alt_km": 1012.3366477788713, "timestamp": "2025-12-13T18:50:03.175781+00:00", "meta": {"OBJECT_NAME": "HULIANWANG DIGUI-116", "OBJECT_ID": "2025-287C", "EPOCH": "2025-12-13T06:50:28.937760", "MEAN_MOTION": 13.68903016, "ECCENTRICITY": 0.00080237, "INCLINATION": 86.4909, "RA_OF_ASC_NODE": 345.9516, "ARG_OF_PERICENTER": 196.5425, "MEAN_ANOMALY": 163.5474, "EPHEMERIS_TYPE": 0, "CLASSIFICATION_TYPE": "U", "NORAD_CAT_ID": 66955, "ELEMENT_SET_NO": 999, "REV_AT_EPOCH": 60, "BSTAR": 2.6413206e-05, "MEAN_MOTION_DOT": 3.9e-07, "MEAN_MOTION_DDOT": 0}, "tle": {"line1": "1 66955U 25287C   25347.28505715  .00000039  00000+0  26413-4 0  9990", "line2": "2 66955  86.4909 345.9516 0008023 196.5425 163.5474 13.68903016   600"}}, "geometry": {"type": "Point", "coordinates": [-20.004217555424635, -58.61800334640109]}}, {"type": "Feature", "properties": {"norad_id": 66956, "name": "HULIANWANG DIGUI-117", "group": "last-30-days", "lat": -56.65100936844208, "lon": -19.562279688518046, "alt_km": 1012.4026815422003, "timestamp": "2025-12-13T18:50:03.175791+00:00", "meta": {"OBJECT_NAME": "HULIANWANG DIGUI-117", "OBJECT_ID": "2025-287D", "EPOCH": "2025-12-11T19:45:00.614592", "MEAN_MOTION": 13.6901764, "ECCENTRICITY": 0.00072845, "INCLINATION": 86.4968, "RA_OF_ASC_NODE": 346.4938, "ARG_OF_PERICENTER": 195.1574, "MEAN_ANOMALY": 164.9368, "EPHEMERIS_TYPE": 0, "CLASSIFICATION_TYPE": "U", "NORAD_CAT_ID": 66956, "ELEMENT_SET_NO": 999, "REV_AT_EPOCH": 40, "BSTAR": 1.8810541e-05, "MEAN_MOTION_DOT": 3.3e-07, "MEAN_MOTION_DDOT": 0}, "tle": {"line1": "1 66956U 25287D   25345.82292378  .00000033  00000+0  18811-4 0  9994", "line2": "2 66956  86.4968 346.4938 0007284 195.1574 164.9368 13.69017640   403"}}, "geometry": {"type": "Point", "coordinates": [-19.562279688518046, -56.65100936844208]}}, {"type": "Feature", "properties": {"norad_id": 66957, "name": "HULIANWANG DIGUI-118", "group": "last-30-days", "lat": -54.65638613777865, "lon": -19.184340638756794, "alt_km": 1012.244333631219, "timestamp": "2025-12-13T18:50:03.175801+00:00", "meta": {"OBJECT_NAME": "HULIANWANG DIGUI-118", "OBJECT_ID": "2025-287E", "EPOCH": "2025-12-12T16:47:31.774848", "MEAN_MOTION": 13.69137019, "ECCENTRICITY": 0.00072192, "INCLINATION": 86.4945, "RA_OF_ASC_NODE": 346.17, "ARG_OF_PERICENTER": 190.5502, "MEAN_ANOMALY": 169.5507, "EPHEMERIS_TYPE": 0, "CLASSIFICATION_TYPE": "U", "NORAD_CAT_ID": 66957, "ELEMENT_SET_NO": 999, "REV_AT_EPOCH": 52, "BSTAR": -0.00019372766, "MEAN_MOTION_DOT": -1.51e-06, "MEAN_MOTION_DDOT": 0}, "tle": {"line1": "1 66957U 25287E   25346.69967332 -.00000151  00000+0 -19373-3 0  9996", "line2": "2 66957  86.4945 346.1700 0007219 190.5502 169.5507 13.69137019   523"}}, "geometry": {"type": "Point", "coordinates": [-19.184340638756794, -54.65638613777865]}}, {"type": "Feature", "properties": {"norad_id": 66958, "name": "CZ-6A R/B", "group": "last-30-days", "lat": 29.178608028900832, "lon": -12.341338754393625, "alt_km": 882.1324991588817, "timestamp": "2025-12-13T18:50:03.175811+00:00", "meta": {"OBJECT_NAME": "CZ-6A R/B", "OBJECT_ID": "2025-287F", "EPOCH": "2025-12-13T01:28:44.314464", "MEAN_MOTION": 13.94919363, "ECCENTRICITY": 0.01072388, "INCLINATION": 86.5058, "RA_OF_ASC_NODE": 345.9783, "ARG_OF_PERICENTER": 101.1865, "MEAN_ANOMALY": 260.1387, "EPHEMERIS_TYPE": 0, "CLASSIFICATION_TYPE": "U", "NORAD_CAT_ID": 66958, "ELEMENT_SET_NO": 999, "REV_AT_EPOCH": 58, "BSTAR": 0.00014805375, "MEAN_MOTION_DOT": 2.28e-06, "MEAN_MOTION_DDOT": 0}, "tle": {"line1": "1 66958U 25287F   25347.06162401  .00000228  00000+0  14805-3 0  9991", "line2": "2 66958  86.5058 345.9783 0107238 101.1865 260.1387 13.94919363   588"}}, "geometry": {"type": "Point", "coordinates": [-12.341338754393625, 29.178608028900832]}}, {"type": "Feature", "properties": {"norad_id": 66988, "name": "YAOGAN-47", "group": "last-30-days", "lat": -38.82406030807531, "lon": 59.01576428531225, "alt_km": 503.0412267788115, "timestamp": "2025-12-13T18:50:03.175823+00:00", "meta": {"OBJECT_NAME": "YAOGAN-47", "OBJECT_ID": "2025-289A", "EPOCH": "2025-12-11T14:58:29.248032", "MEAN_MOTION": 15.23120362, "ECCENTRICITY": 8.584e-05, "INCLINATION": 97.5268, "RA_OF_ASC_NODE": 50.7421, "ARG_OF_PERICENTER": 73.685, "MEAN_ANOMALY": 286.448, "EPHEMERIS_TYPE": 0, "CLASSIFICATION_TYPE": "U", "NORAD_CAT_ID": 66988, "ELEMENT_SET_NO": 999, "REV_AT_EPOCH": 37, "BSTAR": 0.00024920475, "MEAN_MOTION_DOT": 5.809e-05, "MEAN_MOTION_DDOT": 0}, "tle": {"line1": "1 66988U 25289A   25345.62394963  .00005809  00000+0  24920-3 0  9995", "line2": "2 66988  97.5268  50.7421 0000858  73.6850 286.4480 15.23120362   372"}}, "geometry": {"type": "Point", "coordinates": [59.01576428531225, -38.82406030807531]}}, {"type": "Feature", "properties": {"norad_id": 66989, "name": "CZ-4B R/B", "group": "last-30-days", "lat": -63.98358558247335, "lon": 68.920787683634, "alt_km": 328.1444638381681, "timestamp": "2025-12-13T18:50:03.175835+00:00", "meta": {"OBJECT_NAME": "CZ-4B R/B", "OBJECT_ID": "2025-289B", "EPOCH": "2025-12-13T03:46:57.794304", "MEAN_MOTION": 15.67291037, "ECCENTRICITY": 0.01490925, "INCLINATION": 97.5266, "RA_OF_ASC_NODE": 52.5309, "ARG_OF_PERICENTER": 1.3726, "MEAN_ANOMALY": 358.7913, "EPHEMERIS_TYPE": 0, "CLASSIFICATION_TYPE": "U", "NORAD_CAT_ID": 66989, "ELEMENT_SET_NO": 999, "REV_AT_EPOCH": 63, "BSTAR": 0.0008085527, "MEAN_MOTION_DOT": 0.00162131, "MEAN_MOTION_DDOT": 9.638324e-06}, "tle": {"line1": "1 66989U 25289B   25347.15761336  .00162131  96383-5  80855-3 0  9994", "line2": "2 66989  97.5266  52.5309 0149092   1.3726 358.7913 15.67291037   639"}}, "geometry": {"type": "Point", "coordinates": [68.920787683634, -63.98358558247335]}}, {"type": "Feature", "properties": {"norad_id": 66990, "name": "TJS-22", "group": "last-30-days", "lat": -2.5068319545194386, "lon": 127.14562782687571, "alt_km": 2084.763812100072, "timestamp": "2025-12-13T18:50:03.175846+00:00", "meta": {"OBJECT_NAME": "TJS-22", "OBJECT_ID": "2025-290A", "EPOCH": "2025-12-10T07:11:32.845344", "MEAN_MOTION": 2.15443148, "ECCENTRICITY": 0.6664534, "INCLINATION": 20.1261, "RA_OF_ASC_NODE": 301.1464, "ARG_OF_PERICENTER": 180.6877, "MEAN_ANOMALY": 177.6237, "EPHEMERIS_TYPE": 0, "CLASSIFICATION_TYPE": "U", "NORAD_CAT_ID": 66990, "ELEMENT_SET_NO": 999, "REV_AT_EPOCH": 3, "BSTAR": 0.079788243, "MEAN_MOTION_DOT": -3.8e-07, "MEAN_MOTION_DDOT": 0}, "tle": {"line1": "1 66990U 25290A   25344.29968571 -.00000038  00000+0  79788-1 0  9994", "line2": "2 66990  20.1261 301.1464 6664534 180.6877 177.6237  2.15443148    32"}}, "geometry": {"type": "Point", "coordinates": [127.14562782687571, -2.5068319545194386]}}, {"type": "Feature", "properties": {"norad_id": 66991, "name": "CZ-3B R/B", "group": "last-30-days", "lat": 17.493206553149633, "lon": -23.254689658084875, "alt_km": 20103.8622847394, "timestamp": "2025-12-13T18:50:03.175858+00:00", "meta": {"OBJECT_NAME": "CZ-3B R/B", "OBJECT_ID": "2025-290B", "EPOCH": "2025-12-10T06:44:55.577184", "MEAN_MOTION": 2.37676924, "ECCENTRICITY": 0.72420555, "INCLINATION": 28.4645, "RA_OF_ASC_NODE": 302.5976, "ARG_OF_PERICENTER": 179.3847, "MEAN_ANOMALY": 182.8677, "EPHEMERIS_TYPE": 0, "CLASSIFICATION_TYPE": "U", "NORAD_CAT_ID": 66991, "ELEMENT_SET_NO": 999, "REV_AT_EPOCH": 3, "BSTAR": 0.00043781284, "MEAN_MOTION_DOT": 0.00018897, "MEAN_MOTION_DDOT": 4.56211e-07}, "tle": {"line1": "1 66991U 25290B   25344.28119881  .00018897  45621-6  43781-3 0  9998", "line2": "2 66991  28.4645 302.5976 7242055 179.3847 182.8677  2.37676924    36"}}, "geometry": {"type": "Point", "coordinates": [-23.254689658084875, 17.493206553149633]}}, {"type": "Feature", "properties": {"norad_id": 66993, "name": "2025-292A", "group": "last-30-days", "lat": -71.23108985125606, "lon": -142.98440330153667, "alt_km": 551.089768193202, "timestamp": "2025-12-13T18:50:03.175869+00:00", "meta": {"OBJECT_NAME": "2025-292A", "OBJECT_ID": "2025-292A", "EPOCH": "2025-12-13T06:32:22.522560", "MEAN_MOTION": 15.04498043, "ECCENTRICITY": 0.00139058, "INCLINATION": 97.6534, "RA_OF_ASC_NODE": 59.8183, "ARG_OF_PERICENTER": 271.1381, "MEAN_ANOMALY": 88.8252, "EPHEMERIS_TYPE": 0, "CLASSIFICATION_TYPE": "U", "NORAD_CAT_ID": 66993, "ELEMENT_SET_NO": 999, "REV_AT_EPOCH": 47, "BSTAR": 0.00055240312, "MEAN_MOTION_DOT": 7.692e-05, "MEAN_MOTION_DDOT": 0}, "tle": {"line1": "1 66993U 25292A   25347.27248290  .00007692  00000+0  55240-3 0  9990", "line2": "2 66993  97.6534  59.8183 0013905 271.1381  88.8252 15.04498043   476"}}, "geometry": {"type": "Point", "coordinates": [-142.98440330153667, -71.23108985125606]}}, {"type": "Feature", "properties": {"norad_id": 66994, "name": "2025-292B", "group": "last-30-days", "lat": -71.75082130568634, "lon": -143.74441301060386, "alt_km": 551.0711413343506, "timestamp": "2025-12-13T18:50:03.175879+00:00", "meta": {"OBJECT_NAME": "2025-292B", "OBJECT_ID": "2025-292B", "EPOCH": "2025-12-13T06:32:14.858880", "MEAN_MOTION": 15.04546785, "ECCENTRICITY": 0.0013707, "INCLINATION": 97.6543, "RA_OF_ASC_NODE": 59.8186, "ARG_OF_PERICENTER": 271.7144, "MEAN_ANOMALY": 88.2512, "EPHEMERIS_TYPE": 0, "CLASSIFICATION_TYPE": "U", "NORAD_CAT_ID": 66994, "ELEMENT_SET_NO": 999, "REV_AT_EPOCH": 47, "BSTAR": 0.00066207434, "MEAN_MOTION_DOT": 9.245e-05, "MEAN_MOTION_DDOT": 0}, "tle": {"line1": "1 66994U 25292B   25347.27239420  .00009245  00000+0  66207-3 0  9997", "line2": "2 66994  97.6543  59.8186 0013707 271.7144  88.2512 15.04546785   473"}}, "geometry": {"type": "Point", "coordinates": [-143.74441301060386, -71.75082130568634]}}]}